IDEFIX & ARIANE 42P R/B 
1 27422U 02021B   23361.39633049  .00000594  00000+0  24728-3 0  9997
2 27422  98.5123 297.7238 0012805  37.3103 322.8966 14.29905059129178
AQUA                    
1 27424U 02022A   23361.55795316  .00001780  00000+0  39172-3 0  9991
2 27424  98.3109 305.5834 0000799  47.0003  40.5085 14.58700706151500
CZ-4B R/B               
1 27432U 02024C   23361.62273050  .00000111  00000+0  80854-4 0  9997
2 27432  99.0006  37.9026 0050981 138.6868 336.7034 14.14268894115712
MIDORI II (ADEOS-II)    
1 27597U 02056A   23361.42091759  .00000617  00000+0  26574-3 0  9995
2 27597  98.6726 304.0412 0001305 127.5564 232.5736 14.28136938 95594
H-2A R/B                
1 27601U 02056E   23361.59661664  .00000686  00000+0  25998-3 0  9992
2 27601  98.2111 342.4440 0072266  37.0822  83.8745 14.32584718 99079
CZ-4B R/B               
1 28059U 03049C   23361.48284182  .00000675  00000+0  17100-3 0  9991
2 28059  98.5875 314.2724 0049687 161.9166 198.3810 14.53476193 69856
CZ-2C R/B               
1 28222U 04012C   23361.57277485  .00011825  00000+0  51978-3 0  9992
2 28222  97.8072   2.5538 0035738 292.2705  67.4742 15.21482113 80812
SL-16 R/B               
1 28353U 04021B   23361.60040620 -.00000024  00000+0  12094-4 0  9997
2 28353  71.0001 117.5480 0005625 203.1095 156.9775 14.14366950  9273
CZ-4B R/B               
1 28415U 04035C   23361.61160576  .00005799  00000+0  32316-3 0  9996
2 28415  97.4461  34.2221 0043270 260.9557  98.6776 15.13182634 57848
CZ-2C R/B               
1 28480U 04046B   23361.44364431  .00000601  00000+0  24106-3 0  9992
2 28480  98.1410 312.4750 0141356  10.7718 349.6436 14.26194966993962
ARIANE 5 R/B            
1 28499U 04049H   23361.37866837  .00001516  00000+0  18557-3 0  9993
2 28499  98.1594 130.7175 0090340  72.0608 289.0428 14.81919205 26677
CZ-2D R/B               
1 28738U 05024B   23361.56096627  .00010695  00000+0  47414-3 0  9998
2 28738  97.3589 358.2673 0011119  40.5319 319.6743 15.21725609 16378
SUZAKU (ASTRO-EII)      
1 28773U 05025A   23360.99280565  .00022786  00000+0  63223-3 0  9990
2 28773  31.3887 225.4015 0003757 309.5961  50.4359 15.35715253 20266
ALOS (DAICHI)           
1 28931U 06002A   23361.46426646  .00002202  00000+0  42038-3 0  9999
2 28931  98.0155 313.5720 0001493  50.7648 309.3688 14.64917476955680
H-2A R/B                
1 28932U 06002B   23361.18389435  .00006100  00000+0  48081-3 0  9998
2 28932  98.2262  78.3948 0080442  55.5739 305.3052 14.98612271973408
RESURS-DK 1             
1 29228U 06021A   23361.60252480  .00004181  00000+0  29264-3 0  9993
2 29228  69.9346 143.9490 0007612 278.4268  81.6032 15.06030677966326
GENESIS 1               
1 29252U 06029A   23361.46605964  .00014661  00000+0  47999-3 0  9990
2 29252  64.5188  25.9542 0003766 301.1440  58.9320 15.31884463964072
CZ-4B R/B               
1 29507U 06046C   23361.61105844  .00004250  00000+0  29187-3 0  9993
2 29507  97.6661  33.7133 0042923 142.7708 217.6508 15.05758160938736
CZ-2C R/B               
1 31114U 07010B   23361.37900188  .00000277  00000+0  14687-3 0  9993
2 31114  98.3046 142.8241 0060556 111.3380 249.4275 14.19682604865714
COSMO-SKYMED 1          
1 31598U 07023A   23361.57913102  .00001082  00000+0  14250-3 0  9996
2 31598  97.8850 182.2658 0001203  92.3111 267.8240 14.82151685895552
GENESIS 2               
1 31789U 07028A   23361.59916424  .00016646  00000+0  55234-3 0  9994
2 31789  64.4935  70.3883 0042153 236.7666 122.9420 15.30531870910958
COSMOS 2428             
1 31792U 07029A   23361.57080287  .00000464  00000+0  27602-3 0  9995
2 31792  70.9418  88.9082 0011884 284.7058  75.2745 14.12648840850667
SL-16 R/B               
1 31793U 07029B   23361.63347727 -.00000040  00000+0  42117-5 0  9999
2 31793  70.9770  60.1565 0002319 270.0904 203.6915 14.14585605851790
KORONAS-FOTON           
1 33504U 09003A   23361.52424252  .00007759  00000+0  32558-3 0  9991
2 33504  82.4380  17.0901 0018268 125.0291 235.2662 15.23162812822712
CZ-2C R/B               
1 37731U 11030B   23361.54147902  .00002189  00000+0  31023-3 0  9994
2 37731  97.7407 327.0693 0058692  80.4702  37.4922 14.76814465671364
H-2A R/B                
1 38341U 12025E   23361.57990171  .00003629  00000+0  39960-3 0  9992
2 38341  98.4353 257.3525 0053099  48.1002 312.4723 14.87239647628529
CUSAT 2 & FALCON 9 R/B  
1 39271U 13055G   23361.23117277  .00039662 -51359-6  58424-3 0  9993
2 39271  80.9434 284.8241 0377975 157.9211 203.8797 15.01991768539252
SHIJIAN-16 (SJ-16)      
1 39358U 13057A   23361.56364379  .00002992  00000+0  32815-3 0  9995
2 39358  74.9742 260.7002 0019521 254.5853 105.3177 14.87962089551863
CZ-2C R/B               
1 39364U 13059B   23361.58353988  .00051980  00000+0  71375-3 0  9995
2 39364  97.0744  45.1732 0025921 103.3933 257.0215 15.56761814566127
SL-4 R/B                
1 39679U 14021B   23361.01165355  .00008382  00000+0  34146-3 0  9994
2 39679  51.6099 226.8639 0146108 106.8103 254.8956 15.16092843533460
ALOS-2                  
1 39766U 14029A   23361.57880503  .00002924  00000+0  39820-3 0  9999
2 39766  97.9229  95.7062 0001392 103.3016 256.8350 14.79474386518128
SL-27 R/B               
1 40354U 14084B   23361.62700615  .00027298  00000+0  31718-3 0  9995
2 40354  74.7287 222.0734 0023488 123.8856 236.4606 15.61263287507102
YAOGAN-29               
1 41038U 15069A   23361.62192503  .00000904  00000+0  12251-3 0  9996
2 41038  98.0608  10.0017 0003311  84.3088 275.8502 14.81417289436914
ASTRO-H (HITOMI)        
1 41337U 16012A   23361.60107144  .00004523  00000+0  32694-3 0  9996
2 41337  31.0031 109.9592 0011310 218.5789 141.4039 15.02386259431033
HXMT (HUIYAN)           
1 42758U 17034A   23361.56098543  .00007080  00000+0  38607-3 0  9997
2 42758  43.0134 150.9029 0002613 202.9460 157.1271 15.14823266360656
CZ-2C R/B               
1 43521U 18054D   23361.56983354  .00010227  00000+0  40337-3 0  9992
2 43521  35.1495 124.1785 0064042  13.6288 346.6142 15.22888045304495
SAOCOM 1A               
1 43641U 18076A   23361.58748178  .00002053  00000+0  26392-3 0  9997
2 43641  97.8838 185.2957 0001621  88.4238 271.7161 14.82223418282409
H-2A R/B                
1 43682U 18084L   23361.61094016  .00008171  00000+0  47658-3 0  9995
2 43682  98.8720  56.3762 0047211 223.0090 136.7442 15.11355085283407
SAOCOM 1B               
1 46265U 20059A   23361.55122777  .00000962  00000+0  12735-3 0  9997
2 46265  97.8849 184.3449 0001395  90.5145 269.6228 14.82168197179789
CSS (TIANHE)            
1 48274U 21035A   23361.56451908  .00044226  00000+0  45129-3 0  9990
2 48274  41.4716  57.7594 0006059  73.5579 286.5927 15.64251922152074
COSMOS 2550             
1 48865U 21056A   23361.48610169  .00000397  00000+0  17895-4 0  9997
2 48865  67.1415 310.7851 0008299 270.1266  89.8937 15.33829018140283
2022-019U               
1 51842U 22019U   23361.57160744  .00043086  00000+0  81916-3 0  9991
2 51842  97.5206  93.7316 0041507   8.9327 351.2651 15.47163842102227
CZ-2C R/B               
1 52794U 22058K   23361.40821473  .00008540  00000+0  38033-3 0  9994
2 52794  50.1699   6.1150 0087700 154.8653 205.6610 15.18819342 86822
CZ-2C R/B               
1 53131U 22082D   23361.61332683  .00069328  00000+0  65547-3 0  9991
2 53131  97.3298  22.1640 0021524 239.3285 120.5855 15.66477873 81867
XRISM                   
1 57800U 23137A   23361.48714558  .00006376  00000+0  50629-3 0  9999
2 57800  31.0054  30.0034 0009975 296.6732  63.2881 14.99055963 16657
